GLOBALSTAR M057         
1 25943U 99058A   25320.55425885 -.00000080  00000+0  11373-3 0  9994
2 25943  51.9989 275.7844 0002631 336.3974  23.6754 12.24828610185601
GLOBALSTAR M059         
1 25944U 99058B   25320.60225160 -.00000034  00000+0  64378-3 0  9997
2 25944  51.9981 154.8377 0000886  87.9487 311.9148 11.99987310592347
GLOBALSTAR M056         
1 25945U 99058C   25320.27371722 -.00000055  00000+0  38217-3 0  9993
2 25945  51.9930 153.7873 0001961 103.8023  66.8657 12.04781582180951
GLOBALSTAR M031         
1 25946U 99058D   25320.39897198 -.00000080  00000+0  10586-3 0  9994
2 25946  51.9990  36.6556 0001883 130.5873 322.3570 12.16043183183068
GLOBALSTAR M039         
1 25961U 99062A   25319.95285373 -.00000039  00000+0  36284-3 0  9999
2 25961  51.9818 166.4636 0002273 349.3675  10.7144 12.62337157199384
GLOBALSTAR M034         
1 25962U 99062B   25320.51985006 -.00000035  00000+0  72464-3 0  9990
2 25962  51.9895 335.4093 0014099 329.7307 198.3103 11.79450805156360
GLOBALSTAR M029         
1 25963U 99062C   25320.73617483 -.00000088  00000+0 -27001-4 0  9993
2 25963  51.9830  42.3786 0002731  70.1081 103.5823 11.99903103187434
GLOBALSTAR M061         
1 25964U 99062D   25320.27669318 -.00000047  00000+0  53902-3 0  9999
2 25964  51.9757 162.0949 0004774 247.5615 284.2815 11.76777784139081
